{"type": "FeatureCollection", "features": [ {"type": "Feature", "properties": {"norad_id": 34001, "name": "COSMOS 2251 DEB", "group": "cosmos-2251-debris", "lat": -40.9417096722376, "lon": 121.95374268467148, "alt_km": 786.0985461318342, "timestamp": "2025-12-09T11:33:55.194485+00:00", "meta": {"OBJECT_NAME": "COSMOS 2251 DEB", "OBJECT_ID": "1993-036GL", "EPOCH": "2025-12-08T23:08:21.682176", "MEAN_MOTION": 14.37090181, "ECCENTRICITY": 0.0019794, "INCLINATION": 74.0385, "RA_OF_ASC_NODE": 288.5295, "ARG_OF_PERICENTER": 10.3763, "MEAN_ANOMALY": 55.1185, "EPHEMERIS_TYPE": 0, "CLASSIFICATION_TYPE": "U", "NORAD_CAT_ID": 34001, "ELEMENT_SET_NO": 999, "REV_AT_EPOCH": 88092, "BSTAR": 0.00033162, "MEAN_MOTION_DOT": 9.61e-06, "MEAN_MOTION_DDOT": 0}, "tle": {"line1": "1 34001U 93036GL  25342.96413984  .00000961  00000+0  33162-3 0  9992", "line2": "2 34001  74.0385 288.5295 0019794  10.3763  55.1185 14.37090181880922"}}, "geometry": {"type": "Point", "coordinates": [121.95374268467148, -40.9417096722376]}}, {"type": "Feature", "properties": {"norad_id": 34003, "name": "COSMOS 2251 DEB", "group": "cosmos-2251-debris", "lat": 8.68217305758598, "lon": -66.87407739847914, "alt_km": 783.00851892212, "timestamp": "2025-12-09T11:33:55.194495+00:00", "meta": {"OBJECT_NAME": "COSMOS 2251 DEB", "OBJECT_ID": "1993-036GN", "EPOCH": "2025-12-08T07:46:12.371520", "MEAN_MOTION": 13.8411183, "ECCENTRICITY": 0.02740033, "INCLINATION": 74.0787, "RA_OF_ASC_NODE": 292.5761, "ARG_OF_PERICENTER": 45.6277, "MEAN_ANOMALY": 316.6938, "EPHEMERIS_TYPE": 0, "CLASSIFICATION_TYPE": "U", "NORAD_CAT_ID": 34003, "ELEMENT_SET_NO": 999, "REV_AT_EPOCH": 84364, "BSTAR": 0.0031943304, "MEAN_MOTION_DOT": 4.737e-05, "MEAN_MOTION_DDOT": 0}, "tle": {"line1": "1 34003U 93036GN  25342.32375430  .00004737  00000+0  31943-2 0  9996", "line2": "2 34003  74.0787 292.5761 0274003  45.6277 316.6938 13.84111830843645"}}, "geometry": {"type": "Point", "coordinates": [-66.87407739847914, 8.68217305758598]}}, {"type": "Feature", "properties": {"norad_id": 34004, "name": "COSMOS 2251 DEB", "group": "cosmos-2251-debris", "lat": -29.200776471762865, "lon": -49.98773872903003, "alt_km": 710.9245155999715, "timestamp": "2025-12-09T11:33:55.194505+00:00", "meta": {"OBJECT_NAME": "COSMOS 2251 DEB", "OBJECT_ID": "1993-036GP", "EPOCH": "2025-12-09T00:06:20.034720", "MEAN_MOTION": 14.48948385, "ECCENTRICITY": 0.003334, "INCLINATION": 74.0362, "RA_OF_ASC_NODE": 320.113, "ARG_OF_PERICENTER": 332.844, "MEAN_ANOMALY": 27.0974, "EPHEMERIS_TYPE": 0, "CLASSIFICATION_TYPE": "U", "NORAD_CAT_ID": 34004, "ELEMENT_SET_NO": 999, "REV_AT_EPOCH": 87976, "BSTAR": 0.0017703, "MEAN_MOTION_DOT": 6.732e-05, "MEAN_MOTION_DDOT": 0}, "tle": {"line1": "1 34004U 93036GP  25343.00439855  .00006732  00000+0  17703-2 0  9990", "line2": "2 34004  74.0362 320.1130 0033340 332.8440  27.0974 14.48948385879762"}}, "geometry": {"type": "Point", "coordinates": [-49.98773872903003, -29.200776471762865]}}, {"type": "Feature", "properties": {"norad_id": 34005, "name": "COSMOS 2251 DEB", "group": "cosmos-2251-debris", "lat": -14.462031175083379, "lon": -144.5649571444461, "alt_km": 747.1181849672676, "timestamp": "2025-12-09T11:33:55.194516+00:00", "meta": {"OBJECT_NAME": "COSMOS 2251 DEB", "OBJECT_ID": "1993-036GQ", "EPOCH": "2025-12-09T02:19:44.192928", "MEAN_MOTION": 14.40300067, "ECCENTRICITY": 0.0020711, "INCLINATION": 74.0448, "RA_OF_ASC_NODE": 220.3772, "ARG_OF_PERICENTER": 339.1758, "MEAN_ANOMALY": 171.1856, "EPHEMERIS_TYPE": 0, "CLASSIFICATION_TYPE": "U", "NORAD_CAT_ID": 34005, "ELEMENT_SET_NO": 999, "REV_AT_EPOCH": 88326, "BSTAR": 0.00016337, "MEAN_MOTION_DOT": 4.92e-06, "MEAN_MOTION_DDOT": 0}, "tle": {"line1": "1 34005U 93036GQ  25343.09703927  .00000492  00000+0  16337-3 0  9994", "line2": "2 34005  74.0448 220.3772 0020711 339.1758 171.1856 14.40300067883262"}}, "geometry": {"type": "Point", "coordinates": [-144.5649571444461, -14.462031175083379]}}, {"type": "Feature", "properties": {"norad_id": 34006, "name": "COSMOS 2251 DEB", "group": "cosmos-2251-debris", "lat": -24.720117261248053, "lon": 142.27980566713921, "alt_km": 594.5221037451538, "timestamp": "2025-12-09T11:33:55.194525+00:00", "meta": {"OBJECT_NAME": "COSMOS 2251 DEB", "OBJECT_ID": "1993-036GR", "EPOCH": "2025-12-08T05:56:44.562336", "MEAN_MOTION": 14.94253736, "ECCENTRICITY": 0.00116603, "INCLINATION": 74.0536, "RA_OF_ASC_NODE": 152.3261, "ARG_OF_PERICENTER": 104.3242, "MEAN_ANOMALY": 73.8105, "EPHEMERIS_TYPE": 0, "CLASSIFICATION_TYPE": "U", "NORAD_CAT_ID": 34006, "ELEMENT_SET_NO": 999, "REV_AT_EPOCH": 88601, "BSTAR": 0.0040023646, "MEAN_MOTION_DOT": 0.00043241, "MEAN_MOTION_DDOT": 0}, "tle": {"line1": "1 34006U 93036GR  25342.24773799  .00043241  00000+0  40024-2 0  9993", "line2": "2 34006  74.0536 152.3261 0011660 104.3242  73.8105 14.94253736886011"}}, "geometry": {"type": "Point", "coordinates": [142.27980566713921, -24.720117261248053]}}, {"type": "Feature", "properties": {"norad_id": 34007, "name": "COSMOS 2251 DEB", "group": "cosmos-2251-debris", "lat": -71.94283504423443, "lon": -125.3121470073394, "alt_km": 705.8419410587985, "timestamp": "2025-12-09T11:33:55.194535+00:00", "meta": {"OBJECT_NAME": "COSMOS 2251 DEB", "OBJECT_ID": "1993-036GS", "EPOCH": "2025-12-09T02:10:58.215648", "MEAN_MOTION": 14.64744515, "ECCENTRICITY": 0.0044429, "INCLINATION": 74.0194, "RA_OF_ASC_NODE": 353.9199, "ARG_OF_PERICENTER": 130.059, "MEAN_ANOMALY": 230.4489, "EPHEMERIS_TYPE": 0, "CLASSIFICATION_TYPE": "U", "NORAD_CAT_ID": 34007, "ELEMENT_SET_NO": 999, "REV_AT_EPOCH": 89026, "BSTAR": 0.00081382, "MEAN_MOTION_DOT": 4.371e-05, "MEAN_MOTION_DDOT": 0}, "tle": {"line1": "1 34007U 93036GS  25343.09095157  .00004371  00000+0  81382-3 0  9997", "line2": "2 34007  74.0194 353.9199 0044429 130.0590 230.4489 14.64744515890267"}}, "geometry": {"type": "Point", "coordinates": [-125.3121470073394, -71.94283504423443]}}, {"type": "Feature", "properties": {"norad_id": 34008, "name": "COSMOS 2251 DEB", "group": "cosmos-2251-debris", "lat": -23.371340227945257, "lon": -30.633719585647174, "alt_km": 769.0506851517976, "timestamp": "2025-12-09T11:33:55.194545+00:00", "meta": {"OBJECT_NAME": "COSMOS 2251 DEB", "OBJECT_ID": "1993-036GT", "EPOCH": "2025-12-09T01:54:53.424000", "MEAN_MOTION": 14.33141999, "ECCENTRICITY": 0.0024187, "INCLINATION": 74.0341, "RA_OF_ASC_NODE": 337.2075, "ARG_OF_PERICENTER": 333.1201, "MEAN_ANOMALY": 88.8556, "EPHEMERIS_TYPE": 0, "CLASSIFICATION_TYPE": "U", "NORAD_CAT_ID": 34008, "ELEMENT_SET_NO": 999, "REV_AT_EPOCH": 87912, "BSTAR": 0.00018688, "MEAN_MOTION_DOT": 4.88e-06, "MEAN_MOTION_DDOT": 0}, "tle": {"line1": "1 34008U 93036GT  25343.07978500  .00000488  00000+0  18688-3 0  9992", "line2": "2 34008  74.0341 337.2075 0024187 333.1201  88.8556 14.33141999879129"}}, "geometry": {"type": "Point", "coordinates": [-30.633719585647174, -23.371340227945257]}}, {"type": "Feature", "properties": {"norad_id": 34009, "name": "COSMOS 2251 DEB", "group": "cosmos-2251-debris", "lat": 10.065048196280237, "lon": -14.196959832222916, "alt_km": 768.3611745978642, "timestamp": "2025-12-09T11:33:55.194554+00:00", "meta": {"OBJECT_NAME": "COSMOS 2251 DEB", "OBJECT_ID": "1993-036GU", "EPOCH": "2025-12-09T03:27:57.773088", "MEAN_MOTION": 14.33217446, "ECCENTRICITY": 0.0026391, "INCLINATION": 74.037, "RA_OF_ASC_NODE": 343.5073, "ARG_OF_PERICENTER": 54.2961, "MEAN_ANOMALY": 15.9879, "EPHEMERIS_TYPE": 0, "CLASSIFICATION_TYPE": "U", "NORAD_CAT_ID": 34009, "ELEMENT_SET_NO": 999, "REV_AT_EPOCH": 87894, "BSTAR": 0.00020407, "MEAN_MOTION_DOT": 5.37e-06, "MEAN_MOTION_DDOT": 0}, "tle": {"line1": "1 34009U 93036GU  25343.14441867  .00000537  00000+0  20407-3 0  9999", "line2": "2 34009  74.0370 343.5073 0026391  54.2961  15.9879 14.33217446878942"}}, "geometry": {"type": "Point", "coordinates": [-14.196959832222916, 10.065048196280237]}}, {"type": "Feature", "properties": {"norad_id": 34010, "name": "COSMOS 2251 DEB", "group": "cosmos-2251-debris", "lat": -31.71257258923915, "lon": -80.07835107910124, "alt_km": 518.7512555454014, "timestamp": "2025-12-09T11:33:55.194564+00:00", "meta": {"OBJECT_NAME": "COSMOS 2251 DEB", "OBJECT_ID": "1993-036GV", "EPOCH": "2025-12-08T23:03:16.835328", "MEAN_MOTION": 15.1762284, "ECCENTRICITY": 0.0004728, "INCLINATION": 73.9985, "RA_OF_ASC_NODE": 291.2264, "ARG_OF_PERICENTER": 63.4036, "MEAN_ANOMALY": 296.7644, "EPHEMERIS_TYPE": 0, "CLASSIFICATION_TYPE": "U", "NORAD_CAT_ID": 34010, "ELEMENT_SET_NO": 999, "REV_AT_EPOCH": 89228, "BSTAR": 0.0050749, "MEAN_MOTION_DOT": 0.00103581, "MEAN_MOTION_DDOT": 0}, "tle": {"line1": "1 34010U 93036GV  25342.96061152  .00103581  00000+0  50749-2 0  9999", "line2": "2 34010  73.9985 291.2264 0004728  63.4036 296.7644 15.17622840892283"}}, "geometry": {"type": "Point", "coordinates": [-80.07835107910124, -31.71257258923915]}}, {"type": "Feature", "properties": {"norad_id": 34011, "name": "COSMOS 2251 DEB", "group": "cosmos-2251-debris", "lat": -73.01375397805694, "lon": -93.5809330015861, "alt_km": 780.346510281348, "timestamp": "2025-12-09T11:33:55.194574+00:00", "meta": {"OBJECT_NAME": "COSMOS 2251 DEB", "OBJECT_ID": "1993-036GW", "EPOCH": "2025-12-09T00:17:55.061376", "MEAN_MOTION": 14.41740854, "ECCENTRICITY": 0.0035337, "INCLINATION": 74.0157, "RA_OF_ASC_NODE": 337.0654, "ARG_OF_PERICENTER": 61.9294, "MEAN_ANOMALY": 298.5427, "EPHEMERIS_TYPE": 0, "CLASSIFICATION_TYPE": "U", "NORAD_CAT_ID": 34011, "ELEMENT_SET_NO": 999, "REV_AT_EPOCH": 87862, "BSTAR": 0.00098844, "MEAN_MOTION_DOT": 3.225e-05, "MEAN_MOTION_DDOT": 0}, "tle": {"line1": "1 34011U 93036GW  25343.01244284  .00003225  00000+0  98844-3 0  9999", "line2": "2 34011  74.0157 337.0654 0035337  61.9294 298.5427 14.41740854878621"}}, "geometry": {"type": "Point", "coordinates": [-93.5809330015861, -73.01375397805694]}}]}